TRANSPORTER-12 OBJECT BA
1 62657U 25009BA  26068.70118713  .00011330  00000+0  42733-3 0  9991
2 62657  97.3985 151.1390 0000403 234.6623 125.4579 15.27214003 63739
STARLINK-34075          
1 63917U 25095AD  26068.31964944  .00028097  00000+0  10261-2 0  9996
2 63917  42.9947 178.0880 0002340 297.3480  62.7133 15.27595139 47726
